{
    "CCSDS_OMM_VERS": "3.0",
    "COMMENT": "GENERATED VIA SPACE-TRACK.ORG API",
    "CREATION_DATE": "2025-11-22T18:56:57",
    "ORIGINATOR": "18 SPCS",
    "OBJECT_NAME": "COSMOS 2545 (GLONASS)",
    "OBJECT_ID": "2020-018A",
    "CENTER_NAME": "EARTH",
    "REF_FRAME": "TEME",
    "TIME_SYSTEM": "UTC",
    "MEAN_ELEMENT_THEORY": "SGP4",
    "EPOCH": "2025-11-22T06:44:28.068288",
    "MEAN_MOTION": "2.13102586",
    "ECCENTRICITY": "0.00121157",
    "INCLINATION": "64.4816",
    "RA_OF_ASC_NODE": "319.6878",
    "ARG_OF_PERICENTER": "247.2233",
    "MEAN_ANOMALY": "112.6594",
    "EPHEMERIS_TYPE": "0",
    "CLASSIFICATION_TYPE": "U",
    "NORAD_CAT_ID": "45358",
    "ELEMENT_SET_NO": "999",
    "REV_AT_EPOCH": "4425",
    "BSTAR": "0.00000000000000",
    "MEAN_MOTION_DOT": "-0.00000039",
    "MEAN_MOTION_DDOT": "0.0000000000000",
    "SEMIMAJOR_AXIS": "25507.978",
    "PERIOD": "675.731",
    "APOAPSIS": "19160.747",
    "PERIAPSIS": "19098.938",
    "OBJECT_TYPE": "PAYLOAD",
    "RCS_SIZE": "LARGE",
    "COUNTRY_CODE": "CIS",
    "LAUNCH_DATE": "2020-03-16",
    "SITE": "PKMTR",
    "DECAY_DATE": null,
    "FILE": "4894246",
    "GP_ID": "303255006",
    "TLE_LINE0": "0 COSMOS 2545 (GLONASS)",
    "TLE_LINE1": "1 45358U 20018A   25326.28088042 -.00000039  00000-0  00000-0 0  9999",
    "TLE_LINE2": "2 45358  64.4816 319.6878 0012116 247.2233 112.6594  2.13102586 44253"
}